{
  "norad_id": 64101,
  "name": "STARLINK-34072",
  "history": [
    {
      "epoch": "2026-03-28T20:26:17.862432Z",
      "apogee_km": 475.93009774003076,
      "perigee_km": 474.4863720328485,
      "latitude_deg": -3.2932601694537865e-05,
      "longitude_deg": 165.1073418008528,
      "height_km": 476.1076453497805,
      "semi_major_axis_km": 6853.345234886439,
      "eccentricity": 0.00010533,
      "inclination_deg": 53.1591,
      "raan_deg": 297.9479,
      "arg_perigee_deg": 90.0899,
      "mean_anomaly_deg": 270.0222,
      "mean_motion_rev_day": 15.30202289
    },
    {
      "epoch": "2026-03-28T23:34:24.326400Z",
      "apogee_km": 475.9164169728929,
      "perigee_km": 474.49366316537544,
      "latitude_deg": 4.099656416672197e-05,
      "longitude_deg": 117.34620846450473,
      "height_km": 476.0675188571683,
      "semi_major_axis_km": 6853.342040069134,
      "eccentricity": 0.0001038,
      "inclination_deg": 53.1587,
      "raan_deg": 297.3424,
      "arg_perigee_deg": 87.1179,
      "mean_anomaly_deg": 272.9941,
      "mean_motion_rev_day": 15.30203359
    },
    {
      "epoch": "2026-03-30T00:39:15.264864Z",
      "apogee_km": 475.97275714150146,
      "perigee_km": 474.3678496371931,
      "latitude_deg": 2.3858328999721286e-05,
      "longitude_deg": 95.24742010580349,
      "height_km": 476.1107094466343,
      "semi_major_axis_km": 6853.307303389347,
      "eccentricity": 0.00011709,
      "inclination_deg": 53.1583,
      "raan_deg": 292.4859,
      "arg_perigee_deg": 93.027,
      "mean_anomaly_deg": 267.0865,
      "mean_motion_rev_day": 15.30214993
    },
    {
      "epoch": "2026-03-30T13:11:41.282304Z",
      "apogee_km": 476.24034930724065,
      "perigee_km": 474.16310233944296,
      "latitude_deg": 2.6637059763352554e-05,
      "longitude_deg": -95.80170573501401,
      "height_km": 475.95619312317456,
      "semi_major_axis_km": 6853.3387258233415,
      "eccentricity": 0.00015155,
      "inclination_deg": 53.1583,
      "raan_deg": 290.0602,
      "arg_perigee_deg": 82.0804,
      "mean_anomaly_deg": 278.0369,
      "mean_motion_rev_day": 15.30204469
    }
  ]
}